{"type":"Topology","arcs":[[[518,5010],[-21,76],[54,45],[-26,13],[19,67],[31,0],[23,30],[15,-18],[41,8],[36,104],[100,22],[26,86],[55,63],[48,-5],[20,32],[76,-18],[-7,20],[104,54],[-69,75],[34,29],[2,60],[56,34],[-15,11],[46,100],[-20,28],[154,86],[-16,38],[49,25],[9,128],[45,18],[59,-75],[88,-14],[68,-61],[42,-8],[34,17],[58,-22],[41,15],[80,78]],[[1857,6151],[15,-37],[-17,-44],[37,-87],[-108,-28],[33,-118],[24,-13],[44,27],[21,-23],[18,-106],[78,-142],[7,-94],[-37,-73],[71,-173],[-42,-104],[22,-46]],[[2023,5090],[-32,-71],[31,-83],[-10,-99],[34,-49],[-22,-62],[96,-185],[13,-100],[-36,-54],[-5,-122],[40,-73]],[[2132,4192],[-30,-14],[9,-33],[-21,-20],[-23,39],[-50,-6],[-26,-54],[-80,-57],[12,-24],[-19,-5],[-8,-59]],[[1896,3959],[-17,-61],[-31,5],[17,-22],[-79,22],[-77,-59],[-40,7],[-47,-74],[-37,-3],[8,-30],[-51,-58],[20,-34],[-51,-65],[-4,-99],[-55,-13],[-38,-73],[-79,18],[-55,-53],[-59,-10],[1,-42],[-60,-43],[-20,-75],[-45,-16],[-11,-83],[-34,-6],[-8,-46],[-24,10],[-13,-25]],[[1007,3031],[-98,-3],[-6,56],[-44,27],[0,46],[-61,-20],[-84,26],[-16,-36],[-32,17],[-2,-51],[-62,15],[-37,-41],[-40,49],[-57,-25],[-99,25],[13,19],[-32,41],[-77,-12],[12,43],[-39,29],[69,71],[43,117],[-17,44],[52,24],[-89,63],[63,34],[35,81],[-49,25],[-8,29],[96,87],[-77,55],[-14,49],[44,49],[-74,45],[-10,55],[64,94],[29,106],[84,113],[-2,24],[-62,16],[-41,43],[106,85],[-19,145],[30,63],[-35,81],[79,105],[-4,68],[-21,3]],[[6763,3431],[-164,66]],[[6599,3497],[-42,42],[-50,3],[9,36],[-63,87],[-75,0],[-73,51],[-34,-12],[-11,23],[-30,-14],[-106,29],[-28,65],[-38,0],[-48,56],[-72,34],[-45,86],[33,40],[0,58],[-66,-31],[-93,-100],[-78,52],[-34,63],[-133,59],[-90,-85],[-16,16],[16,14],[-36,-5],[-28,42],[46,32],[-66,86],[33,32],[-30,53],[7,31]],[[5358,4340],[32,16],[13,65],[43,3],[110,102],[88,47],[-66,98],[119,41],[-38,206]],[[5659,4918],[121,-47],[-3,-18],[34,-12],[-12,-18],[36,-13],[25,-71],[48,4],[11,-29],[72,-29],[1,-30],[-24,-11],[62,-29],[-12,-20],[22,-40],[-19,-27],[76,-35],[-2,-21],[-22,1],[7,-31],[29,9],[-9,-19],[32,-3],[-13,-24],[21,-40],[100,-100],[36,-10],[10,-49],[53,-25],[1,-23],[89,-42],[42,-67],[90,-5],[116,-43],[42,35],[38,-36],[42,16],[11,-36],[33,19],[3,-27],[50,31],[11,-23],[5,37],[34,8],[45,-14],[9,-30],[29,10]],[[7029,3991],[17,-28]],[[7046,3963],[-26,-40],[-168,-9],[11,-295],[-84,-102],[-16,-86]],[[9736,7750],[112,-24],[81,-47],[27,17],[14,-63],[23,14],[-4,51],[72,-13],[-3,-46],[41,15],[18,-25],[80,85],[48,165]],[[10245,7879],[58,-7],[6,-23],[37,12],[24,-22],[59,2],[34,-45],[43,-8],[2,-35],[96,5],[0,-33],[86,-56],[74,21],[36,-35],[141,-40],[67,-57],[38,-62],[-8,-27],[32,-3],[6,-23],[20,12],[5,-38],[73,-42],[-39,-69],[50,-66],[10,-62],[-20,-18],[-38,17],[-40,-13],[-78,-163],[-12,-70],[28,-34],[-9,-55]],[[11026,6842],[-53,-37],[-90,-14],[-72,-70],[-222,32],[-32,-30],[-49,-4],[-164,-146]],[[10344,6573],[-59,75],[3,44],[-21,-7],[-46,48],[-11,56],[-40,11],[3,44],[-32,-11],[-9,61],[-57,20],[-110,190],[-116,93],[26,132],[-73,101],[-66,320]],[[4492,123],[-86,46],[-49,-49],[-45,37],[-38,-6],[-46,54],[8,23],[-29,15],[7,140],[-19,16],[37,46],[-26,48],[17,70],[-42,7],[-32,115],[-42,27],[-45,-3],[21,93],[-52,135]],[[4031,937],[114,-5],[48,46],[32,-1],[28,-56],[184,-29],[40,-95]],[[4477,797],[44,-70],[-1,-43],[92,-65],[14,-64],[70,-40],[-3,-35]],[[4693,480],[-229,-92],[63,-91],[4,-60],[-53,-8],[14,-106]],[[7046,3963],[31,-1],[-11,-13],[30,-16],[104,36],[23,-21],[102,76],[15,-21],[57,-2],[1,-20],[57,-6],[8,-22],[31,-1],[6,26],[58,-18],[23,17],[29,-29],[55,47],[42,-39],[66,32],[30,-28],[56,7],[90,-43]],[[7949,3924],[-23,-13],[5,-106],[-69,-176],[15,-62]],[[7877,3567],[-121,-217]],[[7756,3350],[-319,-575]],[[7437,2775],[-222,-401]],[[7215,2374],[-95,23]],[[7120,2397],[19,40],[47,20],[55,123],[-42,35],[-41,114],[-26,-1],[31,45],[-36,43],[-28,91],[19,30],[-41,29],[1,31]],[[7078,2997],[-2,69],[-51,12],[-5,34],[-58,18],[-45,93],[10,19],[-98,54],[28,16],[-9,19],[-44,-12],[9,53],[-45,27],[-5,32]],[[8140,7714],[78,21],[145,-66],[59,4],[50,-50],[6,-44],[94,-36],[67,-74],[19,3],[-15,-26]],[[8643,7446],[-71,-12],[-129,-215],[-79,56],[-164,-27],[-243,171],[-82,18],[-39,-7],[7,-60],[-72,7],[-290,-65],[-29,75],[-57,-101],[-158,-117]],[[7237,7169],[-109,205],[13,18],[-50,151],[-89,137],[40,48],[6,86],[255,8],[33,106],[41,51],[86,48],[-97,70],[30,100]],[[7396,8197],[124,90],[206,-159],[4,69],[37,70],[52,31],[98,132]],[[7917,8430],[227,20],[34,-164],[76,-66],[-84,-238],[-141,-51],[8,-50],[43,-12],[8,-74],[52,-81]],[[7215,2374],[0,-34],[-36,-2],[16,-40],[-63,-28],[-8,-28]],[[7124,2242],[-57,7],[-83,-74],[-198,-37],[-227,109],[-91,142],[-69,50]],[[6399,2439],[176,178],[89,-108],[78,-53],[197,-60],[92,23],[89,-22]],[[2756,5732],[-5,-1]],[[2751,5731],[-15,36],[19,35],[-28,18],[21,55],[-29,17],[23,15],[10,66],[-44,-1],[-7,-21],[-6,41],[-43,14],[-116,-75],[-236,5],[-20,-71],[-91,-1],[-42,-24],[-81,89],[6,148],[-78,19],[-106,113],[-79,-4]],[[1809,6205],[18,91],[-26,32],[2,100],[-40,55],[-61,0],[111,630]],[[1813,7113],[19,-40],[-26,-32],[9,-30],[54,7],[0,-20],[32,-4],[62,21],[14,-29],[23,3],[-2,-34],[7,17],[25,-12],[-5,-30],[87,-89],[31,-10],[42,38],[33,-32],[54,45],[79,-26],[26,-83],[86,31],[122,-3],[225,-177],[45,-1],[105,-126],[5,-161],[53,-107],[-36,-38],[18,-148],[44,-28],[10,-36],[44,2],[24,-49],[24,8],[40,-36],[8,-67]],[[3194,5837],[-125,-27],[51,-28],[25,-75],[7,-169],[-35,-20]],[[3117,5518],[-29,4],[-22,-26],[-39,47],[0,-70],[-30,-18],[-29,35],[-41,-13],[-4,38],[-47,47],[16,25],[-41,-12],[-12,43],[-51,39],[-22,54],[14,14],[-24,7]],[[4915,3908],[-14,-62],[59,-11],[20,-33],[16,14],[-5,-28],[30,1],[-23,-45],[85,-69],[76,-28],[1,-69]],[[5160,3578],[-27,-22],[-50,34],[-128,24],[-34,-23],[-41,-101]],[[4880,3490],[-216,-55],[-42,13],[-77,-21],[-211,74],[-73,-24]],[[4261,3477],[-13,43],[-73,-10],[7,21],[-37,26],[-32,-11],[-3,32],[-30,3],[-24,50],[-70,-15],[-34,34],[-59,3],[-94,48],[-32,-52],[-52,93],[-100,105]],[[3615,3847],[-15,57],[34,-32],[29,23],[-24,-5],[0,45],[-24,-1],[20,25],[24,-51],[10,24],[23,-3],[57,-52],[-42,64],[46,-27],[-27,22],[12,38],[-63,-22],[24,23],[-40,25],[19,-9],[23,26],[-14,17],[-33,-27],[8,31],[-34,23],[64,10],[-26,6],[6,21],[-22,-4],[9,24],[-19,-15],[-37,28]],[[3603,4131],[-1,18],[23,-12],[-8,57],[24,6],[39,-39],[-12,20],[37,7],[-62,39],[38,26],[6,-36],[20,7],[-14,-17],[37,18],[-19,-23],[14,-34],[19,30],[6,-33],[24,7],[3,30],[-39,41],[15,51],[34,-96],[9,42],[17,-7],[-6,-70],[13,-14],[6,47],[1,-36],[21,11],[-7,-35],[17,15],[16,-29],[15,52],[-42,33],[14,40],[-34,25],[26,6],[32,-27],[-12,-15],[55,-6],[-27,19],[17,18],[-47,0],[6,34],[29,-18],[14,27],[-23,-10],[-2,19],[-35,-31],[-49,-4],[-3,22],[50,-5],[22,23],[-29,-6],[4,24],[40,22],[-33,9],[-39,-51],[-12,35],[42,25],[-40,-4],[27,23],[-26,2],[52,3],[-17,22],[-52,-6],[27,21],[39,-15],[7,24],[-29,7],[35,19],[-35,-5],[-1,19],[-23,-25],[17,37],[-39,-7],[33,29],[22,-21],[13,16],[-10,28],[-29,-3],[23,10],[-23,13],[46,1],[-36,23],[19,9],[37,-29],[-15,-26],[18,8],[8,-24],[10,23],[12,-36],[15,19],[-21,9],[23,22],[-29,-7],[6,27],[-34,29],[45,-19],[-4,33],[16,-1],[-23,12],[22,1],[14,-24],[22,18],[-46,23],[18,29],[-35,-10],[34,30],[-25,21],[-25,-22],[-3,24],[30,8],[-68,42],[26,11],[-12,-18],[56,-23],[2,35],[34,-26],[-40,44],[20,14],[9,-19],[30,4],[14,36],[15,-32],[-31,-13],[26,-21],[43,36],[-5,28],[50,-40],[-38,18],[4,-23],[-19,6],[-21,-42],[52,33],[0,-38],[63,35],[-13,58],[26,27]],[[4146,4872],[66,-21],[28,-34],[97,36],[67,-26],[17,18]],[[4421,4845],[51,64],[32,-26]],[[4504,4883],[-29,7],[-52,-110],[-23,-63],[23,-30],[-37,-58],[26,-56],[-9,-52],[40,-37],[-14,-60],[34,-25],[-26,-44],[43,-88],[51,-12],[65,-83],[5,22],[38,-23],[-10,-31],[52,1],[-11,-38],[32,-3],[9,-25],[-31,-20],[57,-9],[10,-51],[51,22],[7,-47],[23,32],[26,-31]],[[4854,3971],[18,-61],[43,-2]],[[3603,4131],[-64,58],[-65,20],[-14,45],[-49,11],[-86,68],[-192,28],[-74,50],[-16,47]],[[3043,4458],[-30,46],[19,26],[-31,14],[-4,34],[68,14],[-57,23],[11,57],[-27,69],[27,40],[42,-7],[17,19],[-15,47],[-39,20],[21,16],[-23,36],[49,49],[-28,5],[7,46],[56,-22],[-48,73],[66,19],[-22,86],[95,-54],[5,23],[-41,29],[23,34],[-44,44],[31,30],[39,-16],[10,25]],[[3220,5283],[70,-1],[16,-31],[9,21],[24,-4],[4,-48],[104,-27],[79,27],[64,80],[0,35],[88,-23],[17,-26],[39,13],[53,-67],[-12,-44],[30,-16],[31,-133],[157,-127],[106,6],[47,-46]],[[5783,220],[100,41],[-89,86],[45,60]],[[5839,407],[131,-36],[119,-126],[55,-14],[5,15],[7,-22],[108,40],[48,62]],[[6312,326],[6,-42],[-62,-133],[-258,-151],[-57,104],[-43,-7],[-49,34],[-66,89]],[[6504,1000],[118,138],[52,20],[5,25],[26,-4],[-19,22],[28,44],[-54,124],[-167,84],[-152,41],[-88,-31],[12,-19],[-31,-15],[-72,11],[-4,52],[-64,-17],[-5,26],[-48,-1],[-40,47],[-52,16],[-24,-14]],[[5925,1549],[-140,28],[-3,41],[-62,25]],[[5720,1643],[53,131],[4,118],[22,34],[-15,69],[400,92],[61,-19],[56,29]],[[6301,2097],[130,-61],[99,-105],[176,-58],[102,-6],[48,-53],[65,-8],[52,-67]],[[6973,1739],[35,-35]],[[7008,1704],[-4,-195],[-162,-337],[-53,-63],[-242,-113],[-43,4]],[[2132,4192],[204,29],[60,-18],[92,27],[112,-26],[55,25],[52,-14],[73,34],[99,-9],[24,22],[0,83],[63,-1],[34,46],[0,53]],[[3000,4443],[39,-85],[-23,-63],[32,-38],[-1,-39],[56,-5],[63,-57],[0,-73],[25,-39],[-48,-64],[29,-17],[-13,-61],[49,-51],[6,-44],[62,-6],[12,-49],[40,-15],[54,-78],[-11,-44],[144,-5]],[[3515,3610],[-62,-16],[19,-15],[-19,-12],[28,-11],[-27,-11],[9,-22],[-14,30],[-20,-10],[-12,53],[-17,-3],[7,-56],[-14,39],[-30,-8],[5,34],[-32,8],[2,46],[-20,-1],[17,-31],[-16,-31],[20,7],[5,-26],[-44,-11],[46,-7],[-13,-32],[51,6],[-3,-28],[-48,1],[29,-12],[-15,-29],[35,0],[-12,-24],[19,-10],[-25,-2],[-27,37],[-20,-30],[13,45],[-26,-2],[5,21],[-26,-3],[4,-56],[-33,55],[-37,-15]],[[3217,3478],[-40,36],[-51,-3],[-8,75],[-54,62],[-101,10],[-48,186],[-127,62],[-57,-23],[-147,20],[-41,35],[-26,127],[-144,-54],[-43,-46],[-66,73],[-171,-36]],[[2093,4002],[-59,9],[-138,-52]],[[7124,2242],[37,-82],[-9,-41],[25,11],[-2,-30],[50,15],[10,-19],[-194,-163],[-15,-67],[-45,-27],[-8,-100]],[[6301,2097],[-78,71],[-79,-15],[-53,19],[-153,201],[-97,-75],[-64,9]],[[5777,2307],[127,293]],[[5904,2600],[361,-146],[18,-53],[116,38]],[[5234,6231],[30,205],[37,-2],[44,48],[105,24],[111,-39],[39,25],[34,-16],[33,31],[143,-51]],[[5810,6456],[61,14],[124,-7],[46,-28],[47,11],[69,-41],[19,-42],[112,-44]],[[6288,6319],[48,-46],[30,-99],[100,-109],[-6,-52],[162,-86],[-11,-19],[-42,9],[-101,-45],[-39,6],[-1,-25],[-31,9],[-15,-32],[-124,-21],[-34,-32],[-24,18],[-45,-31]],[[6155,5764],[-110,-51],[-122,30],[-81,82],[-47,8],[-40,40],[-70,7],[-42,172],[-139,54],[-59,-2],[-49,59],[-144,39],[-18,29]],[[5720,1643],[-5,-14]],[[5715,1629],[-81,80],[-15,49],[-65,-4],[-59,67],[-26,13],[-19,-16],[-70,68],[-76,2]],[[5304,1888],[-20,64],[7,123],[48,82],[88,42],[-41,37],[-31,85],[86,-26],[113,4],[60,39],[56,-4],[34,-37],[36,18]],[[5740,2315],[37,-8]],[[4354,2176],[4,55],[-30,33],[20,91],[-15,56],[29,32],[-10,26],[-25,-1],[46,27],[-17,35],[40,6],[25,-26],[19,24],[66,16],[14,-16],[59,60],[134,67],[43,-33],[39,9],[33,81],[91,19]],[[4919,2737],[33,-11]],[[4952,2726],[-34,-140],[-60,-82],[-35,-1],[-33,-56],[-44,-15],[-6,-54],[-40,-39],[1,-56],[196,-96],[21,-42],[34,-10],[-10,-35],[64,-19],[15,-34],[-19,-17],[38,4],[3,-29],[132,-54],[11,-37]],[[5186,1914],[-44,-28],[-50,21],[-51,-28],[3,-28],[-28,-21],[-50,7],[6,-26],[-27,-18],[-35,66],[-68,-31],[-57,13]],[[4785,1841],[12,17],[-19,19],[-31,-13],[-12,17],[-41,-45],[-49,13],[-5,48],[-110,63],[5,60],[-34,-9],[-48,80],[-34,11],[-3,47],[-49,-3],[-13,30]],[[759,7887],[25,79],[33,7],[40,135],[229,-45],[10,-53],[-66,-89],[-5,-140],[-27,-25],[-47,38],[-69,-8],[-107,53],[-16,48]],[[5160,3578],[59,2],[45,-120],[112,66],[-1,-49],[26,-8],[-40,-26],[25,-46],[42,8],[-9,24],[54,1]],[[5473,3430],[-55,-189],[-30,-38]],[[5388,3203],[-38,-51],[-253,-164],[-132,38],[-36,40],[-59,16],[-42,61],[-73,-30],[-12,187],[30,37],[88,30],[22,39],[-21,34],[18,50]],[[6017,807],[33,45],[20,188],[-92,51],[22,22],[-134,99],[-42,85],[101,252]],[[6504,1000],[-62,-90],[-79,-300]],[[6363,610],[-17,76],[-68,-3],[-128,65],[-34,42],[-99,17]],[[10344,6573],[-253,-38],[-58,-47],[-19,-56]],[[10014,6432],[-98,24],[-44,191],[-104,-149],[-35,5],[-40,-35],[-119,6],[-92,-34],[-38,-50],[-54,-18],[-43,-73]],[[9347,6299],[-41,37],[-31,78],[-52,41],[-31,115],[13,145],[-126,131],[-15,62],[-48,33],[-23,107],[-61,46],[-75,-7],[-25,36],[-35,7]],[[8797,7130],[-61,97]],[[8736,7227],[44,35],[45,111],[-24,64],[50,132]],[[8851,7569],[66,5],[110,-52],[168,-16],[52,63],[91,-60],[73,82],[-16,28],[-113,-2],[-59,93],[-34,17],[78,64],[67,-28],[77,-70],[35,14],[56,82],[33,8],[201,-47]],[[5783,220],[-21,43],[-73,1],[-9,29],[-71,26],[-46,-9],[7,33],[-31,27],[-39,-23],[-11,27],[-46,2],[-35,34],[-23,-29]],[[5385,381],[-40,150]],[[5345,531],[94,30]],[[5439,561],[23,-23],[159,-2],[59,-32],[37,5],[23,-15],[-1,-42],[60,-4]],[[5799,448],[40,-41]],[[6399,2439],[-46,110],[-71,73],[-17,118]],[[6265,2740],[152,302],[29,14]],[[6446,3056],[29,16],[73,-26],[51,-55],[103,-18],[82,-43],[145,8],[122,67],[27,-8]],[[5904,2600],[35,81]],[[5939,2681],[70,160]],[[6009,2841],[256,-101]],[[7225,8274],[-107,-52],[-57,-75],[-133,-43],[-33,11],[8,55],[-113,-77],[-81,20],[-105,-26],[-93,14],[-50,-63],[7,-52],[-67,-42],[-49,1],[-26,45],[-59,33],[-19,53],[-94,-5]],[[6154,8071],[-33,204],[-78,98],[-3,68],[-33,54],[-81,59],[-92,25]],[[5834,8579],[131,228],[31,6],[38,-42],[134,7],[34,73],[55,8],[10,25],[50,-3]],[[6317,8881],[47,43],[108,-86],[33,31],[58,-10],[34,42],[24,-6],[67,78],[89,-43],[4,29],[46,29],[96,6],[54,-21],[113,34]],[[7090,9007],[124,-134],[58,-130],[-7,-30],[50,-15],[3,-38],[93,-42],[-10,-87],[53,-65],[-222,-99],[-1,-20]],[[7231,8347],[-6,-73]],[[6017,807],[-85,16],[-89,-242],[15,-33],[-59,-100]],[[5439,561],[-62,138],[-91,85],[-100,52]],[[5186,836],[-45,113],[-63,54],[71,86],[-5,48],[38,82],[167,31],[55,-39],[44,59],[-29,95],[15,51],[202,114],[79,99]],[[3615,3847],[-45,32],[20,-60],[-21,28],[-18,-47],[5,60],[-26,-46],[2,43],[-19,-22],[-9,30],[-21,-58],[2,73],[-27,-55],[-17,48],[-27,-5],[20,22],[-39,-4],[14,-15],[-18,-11],[22,2],[41,-50],[-38,-3],[10,-46],[35,33],[10,-25],[36,-2],[-51,-12],[19,-14],[-37,-1],[0,-19],[95,13],[-19,-48],[60,-22],[-31,-26],[-15,27],[-66,10],[-14,-14],[27,-10],[-5,-16],[-25,14],[-24,-8],[14,-18],[-39,2],[119,-17]],[[3000,4443],[43,15]],[[5473,3430],[67,-11],[54,48],[44,-58],[33,5]],[[5671,3414],[-21,-129],[-104,-184],[-70,60],[-84,-3],[-4,45]],[[4421,4845],[-98,131],[5,42],[-50,30],[-19,107],[-58,30],[-32,93],[-87,45],[0,63],[-39,27],[-5,64],[-40,32],[22,128],[-21,7],[10,30],[-19,18]],[[3990,5692],[31,27],[21,-25],[75,84],[32,-20],[10,17],[20,-30],[23,45],[-15,13],[22,85],[-25,67],[15,60],[-55,11],[-50,43],[-4,49],[31,26],[-18,28],[48,102],[56,8],[6,-23],[28,16],[47,-49],[88,26],[141,-106]],[[4517,6146],[-14,-32],[-28,1],[2,-65],[37,2],[1,-61],[-26,-25],[-51,26],[-10,-29],[-65,40],[-7,-98],[-58,-52],[-6,-37],[19,-24],[29,16],[11,-16],[-5,29],[15,-7],[17,39],[45,-7],[3,-26],[51,-33],[3,-45],[27,-4],[-7,-36],[67,-72],[12,-58]],[[4579,5572],[-26,-169],[27,-50],[45,-25],[37,-121],[-29,-45],[10,-31],[-58,-56],[0,-110],[29,-40],[-39,-22],[1,-52],[-72,32]],[[6009,2841],[28,65],[-64,26]],[[5973,2932],[54,66],[6,22],[-22,10],[29,14],[-6,19],[21,-6],[40,38],[-33,69],[68,120],[-46,98]],[[6084,3382],[65,49],[34,-29],[65,-7]],[[6248,3395],[50,-64],[8,-154],[146,-60],[-23,-54],[17,-7]],[[6363,610],[-2,-61],[-43,-89],[-6,-134]],[[5939,2681],[-160,64],[-14,-32],[-38,15],[-66,-152]],[[5661,2576],[-29,81],[-79,6]],[[5553,2663],[-104,81],[118,94],[54,-36],[19,-51],[93,29],[31,-27],[-4,32],[42,1],[49,88],[51,32],[50,-5],[21,31]],[[5671,3414],[4,40],[46,30],[61,-22],[-14,-32],[92,-13],[7,-26],[11,23],[3,-21],[43,-7],[14,26],[63,4],[16,-52],[9,26],[20,-21],[38,13]],[[5553,2663],[-76,-22],[-13,-28],[-54,25],[-83,-35],[-34,42],[-18,-27],[-38,13],[-6,37],[-36,19],[-24,-16],[-106,35],[-32,-24],[-2,29],[-79,15]],[[4919,2737],[7,27],[-61,5],[-85,115],[-40,8],[-2,22],[-33,2],[-29,35],[-80,-37],[-26,8],[-2,29],[-74,-5],[-39,54],[-57,-7],[-9,-28],[-14,34],[-53,-26],[-30,102],[-23,10],[-12,-25],[-49,27],[-2,-15],[-28,37],[-47,10],[-5,134],[-38,81],[130,75],[43,68]],[[7917,8430],[3,120],[40,83],[88,33],[61,59]],[[8109,8725],[7,-43],[264,-83],[96,24],[80,-29],[155,61],[129,-55],[56,-83]],[[8896,8517],[-109,-68],[19,-80],[-38,-74],[44,-62],[-38,-3],[32,-75],[-72,21],[14,28],[-19,-2],[-22,54],[-101,-122],[31,-13],[2,-52],[78,-62],[-22,-258],[81,-48],[31,-112],[44,-20]],[[8736,7227],[-22,79],[16,15],[-85,87],[-2,38]],[[8896,8517],[102,-126],[55,-27],[73,18],[124,-31],[46,-71],[66,-11],[30,-73],[73,-10],[41,-22],[3,-29],[23,24],[36,-23],[13,24],[28,-23],[17,21],[66,-42],[61,-90],[24,13],[-2,-22],[41,3],[40,-41],[72,-10],[25,-34],[25,7],[85,-55],[29,18],[46,-23],[49,23],[58,-26]],[[7396,8197],[-28,4],[-55,72],[-31,3],[-51,71]],[[7090,9007],[126,58],[19,-23],[78,49],[-19,55],[28,35],[-48,80],[10,15],[85,47],[81,-28],[26,36],[-75,51],[34,14],[67,-24],[141,125],[-23,198]],[[7620,9695],[94,-55],[162,12],[-10,-30],[-70,-10],[-30,-36],[65,-367],[48,-51],[70,-12],[17,39],[102,48],[115,-30],[105,2],[71,-55],[-4,-37],[-56,-70],[-116,-19],[-12,-62],[-125,-120],[34,-116],[29,-1]],[[518,5010],[-46,-20],[-36,64],[-64,14],[113,103],[-59,72],[-106,-3],[42,74],[103,-5],[-4,38],[-81,98],[-55,-65],[-46,9],[27,88],[-65,51],[24,64],[-35,100],[34,117],[-37,56],[-70,17],[-26,30],[-30,82],[10,107],[-35,7],[-39,-35],[-23,13],[-6,58],[64,53],[-72,43],[80,33],[38,61],[68,5],[25,68],[82,12],[32,52],[38,4],[47,-37],[68,115],[-420,340],[538,1158],[112,1],[28,39],[-41,51],[-1,126],[-73,0],[322,1054],[162,16],[-186,158],[-41,142],[-187,342],[58,0],[0,32],[-55,58],[13,71],[-100,113],[5,71],[-18,6],[15,16],[-20,8],[17,13],[-23,-1],[16,15],[-30,29],[73,-12],[34,60],[30,-22],[23,-124],[43,-82],[-24,-71],[33,-21],[36,20],[60,-93],[-18,-7],[11,-36],[45,3],[89,-98],[64,4],[0,-32],[39,-38],[9,45],[74,57],[20,-8],[14,29],[36,-19],[70,43],[38,-19],[0,16],[79,1],[-30,30],[162,41],[48,-21],[65,73],[45,8],[17,57],[70,57],[45,74],[-34,3],[-2,49],[113,76],[52,0],[21,78],[57,40],[-24,27],[33,17],[-35,21],[19,43],[65,3],[2,30],[37,16],[-10,32],[54,49],[64,-12],[-5,-15],[20,17],[30,-36],[11,28],[17,-29],[-3,36],[26,-27],[9,19],[45,-17],[29,3],[9,25],[68,-10],[39,56],[58,-47],[18,9],[16,-34],[132,103],[32,-37],[35,33],[24,-11],[25,21],[-6,25],[45,6],[8,40],[66,-13],[-7,26],[37,1],[6,33],[70,-3],[43,40],[78,-7],[17,-26],[10,25],[60,-53],[-24,-15],[19,-1],[-3,-39],[34,-4],[3,-27],[9,18],[45,-5],[16,-44],[23,32],[62,-10],[-24,-15],[24,-18],[18,25],[51,-52],[22,21],[-1,-29],[37,11],[26,-47],[40,9],[62,-42],[19,19],[12,-26],[12,22],[39,-17],[18,20],[19,-33],[7,31],[21,-39],[63,-16],[-2,-76],[18,4],[0,-25],[79,-75],[79,0],[45,-49],[95,-21],[8,16],[41,-53],[87,11],[7,-30],[32,6],[73,-97],[59,-4],[20,-34],[49,-11]],[[4682,10270],[-258,-960]],[[4424,9310],[-144,-534]],[[4280,8776],[-199,-573],[-268,-236],[-138,-272],[-52,-47],[-4,-85],[-197,-203],[-27,2],[-2,299],[-938,2],[-60,-377],[-382,-171],[-59,16],[-93,-21],[-23,22],[-25,-19]],[[1809,6205],[48,-54]],[[5834,8579],[-81,-39],[-197,27]],[[5556,8567],[-63,66],[-12,72],[-161,59],[-30,57],[10,43],[-36,-84],[10,139],[-68,43],[-9,31],[-66,41],[7,-24],[-56,11],[-17,-33],[-66,19],[-39,40],[-22,-10],[-1,39],[-27,8],[8,28],[-32,20],[14,11],[-76,30],[9,25],[-20,15],[31,29],[-48,6],[-4,31],[-36,-18],[-28,52],[-49,12],[-15,28],[-42,-27],[-35,26],[-21,-27],[-26,25],[-13,-48],[-16,43],[-50,-50],[-15,23],[-22,-8]],[[4682,10270],[3,-4]],[[4685,10266],[-35,-146],[40,-26],[11,-116],[26,1],[40,-54],[74,-41],[35,16],[75,-22],[35,-36],[7,-53],[95,-77],[57,-9],[103,32],[37,20],[32,67],[61,21]],[[5378,9843],[16,-139],[-33,-200],[70,-95],[64,16],[20,-19],[12,-146],[66,112],[169,92],[13,27],[55,12],[14,-32],[126,17],[34,30],[11,-23],[12,35],[101,30]],[[6128,9560],[95,-108],[19,-198],[-117,-107],[100,30],[76,-39],[16,-257]],[[5007,6451],[25,-12],[-23,-9],[14,-12],[-59,-40],[4,-21],[-30,2],[-38,-55],[-26,10],[-45,-23],[3,-34]],[[4832,6257],[-32,-15],[-33,19]],[[4767,6261],[31,72],[-53,142],[-64,78],[-62,-34],[-66,22],[-45,-6],[-22,-28],[-79,19],[12,62],[-33,31],[-10,79],[-80,78],[-9,49],[28,45],[46,20],[163,383]],[[4524,7273],[147,-148],[95,-27],[43,35],[25,-5],[-11,-74],[32,-65],[88,23],[55,-16],[51,25],[13,43],[84,7],[41,179],[-9,72],[36,57]],[[5214,7379],[96,-86],[-25,-37],[28,-18],[13,-86]],[[5326,7152],[-62,-60],[50,-89],[-7,-132]],[[5307,6871],[-43,-12],[-86,-95],[-31,-6],[5,-70],[-81,-68],[8,-30],[-21,-2],[-16,-64],[13,-13],[-48,-60]],[[4031,937],[26,14],[-2,39],[62,114],[-79,99],[4,59],[47,32],[-25,29]],[[4064,1323],[29,3],[41,62],[22,115],[70,61]],[[4226,1564],[142,-271],[177,-88],[97,-65],[15,-40]],[[4657,1100],[-75,-30],[-105,-273]],[[5304,1888],[-97,5],[-21,21]],[[5661,2576],[52,-79],[-1,-134],[28,-48]],[[5659,4918],[-20,-2],[-13,60],[-15,-15],[-44,27],[-60,54],[5,18],[-43,-8],[-12,34],[-71,0],[14,30],[-32,16],[-17,42],[17,12],[-24,-5],[26,30],[-23,29],[20,31],[-55,108],[-58,19],[-73,-75]],[[5181,5323],[-41,85],[43,42],[28,-2],[45,76],[-45,69],[-5,82],[57,63],[0,248],[-23,33],[-59,5],[-7,31],[-159,56],[17,66]],[[5032,6177],[78,11],[21,52],[103,-9]],[[6155,5764],[-15,-114],[27,-103],[-44,-118],[6,-59],[42,-22],[29,-78],[70,-18],[72,-82],[65,-30],[27,-108],[49,-48],[101,-9],[65,-37],[34,-57],[-6,-43],[67,-48],[71,-10],[49,-105],[61,-48],[12,-98],[104,-236],[-42,-117],[51,-71],[-18,-28],[28,-55],[-31,-31]],[[2093,4002],[28,-95],[-12,-47],[66,-61],[-60,-121],[19,-71],[-43,-29],[15,-21],[-17,-31],[-37,1],[7,-47],[-37,-49],[19,-55],[-19,8],[-24,-48],[26,-15],[10,-63],[-52,-18],[-22,-44],[-9,27],[-31,3],[-11,-25],[-23,3],[10,-17],[-58,-28],[-12,28],[-58,-29],[46,-67],[-66,-21],[15,-75],[-34,-57]],[[1729,2938],[-79,-27],[-17,13],[12,22],[-123,-15],[-27,40],[-56,-64],[-85,52],[-43,-43],[-23,26],[-61,-4],[-18,44],[-60,-1],[-33,28],[-66,-6],[-43,28]],[[7237,7169],[18,-46],[-33,-92],[43,-40],[6,-50],[60,-89]],[[7331,6852],[-45,-21],[-227,42],[-74,102],[-95,42],[-112,103],[-48,91],[-64,47],[-76,-274],[-129,-33]],[[6461,6951],[-53,144],[-67,-2],[-48,-42],[-50,-2],[-109,75],[-136,-12],[-172,42],[-49,68]],[[5777,7222],[1,123],[62,24],[19,74],[94,7],[-2,138],[65,17],[39,90],[68,7],[14,27],[-12,14],[19,13],[-30,16],[24,25],[-35,14],[22,103],[-57,19],[19,33],[-38,15],[20,41],[-26,19],[37,13],[45,-23],[29,40]],[[7756,3350],[24,-1],[28,-59],[10,-204],[108,-276],[58,-77],[22,-99],[-22,-5],[84,-77]],[[8068,2552],[-195,-121],[-52,-75],[4,-42],[-129,-160],[-214,-68]],[[7482,2086],[-31,26],[24,28],[59,12],[29,118],[-12,123],[-76,161],[-11,180],[-27,41]],[[7949,3924],[43,-28]],[[7992,3896],[30,-34],[62,-18],[84,13],[101,-18],[130,-93],[64,-21],[98,50],[188,3],[25,28],[147,29],[132,64],[29,-23],[55,20],[92,-59],[37,-60],[18,-102]],[[9284,3675],[-46,-120],[-182,-169],[-57,-176],[-72,-85]],[[8927,3125],[35,81],[-16,47],[-105,-1],[-193,139],[-55,51],[-40,135],[-366,-76],[-310,66]],[[2023,5090],[251,1],[22,63],[105,64],[-1,72],[54,28],[-2,48],[44,50],[53,4],[33,37],[-11,70],[45,-8],[106,51],[-10,30],[28,35],[11,96]],[[3117,5518],[7,-50],[-26,-31],[53,-21],[-17,-15],[10,-52],[76,-66]],[[9026,4157],[-87,98],[-146,87],[-207,328],[-349,296],[-245,166],[-66,198],[-136,74]],[[7790,5404],[355,122],[125,116]],[[8270,5642],[90,-52],[40,-71],[203,-153],[101,-122],[266,-151]],[[8970,5093],[87,-112],[89,-42],[35,15],[38,-15],[209,-131],[190,-196],[80,5],[21,-25]],[[9719,4592],[47,-126],[-20,-104],[-70,-72],[-33,-111],[-105,-96],[-108,18],[-55,-104]],[[9375,3997],[-92,-23],[-50,71],[-46,4],[0,30],[-71,54],[-90,24]],[[3217,3478],[-18,-14],[22,-6],[-43,-32],[61,30],[-13,-36],[34,2],[-24,-27],[23,-13],[-33,0],[2,-32],[24,12],[5,-37],[11,30],[27,-8],[-15,-29],[38,27],[-28,-43],[19,1],[-9,-24],[-42,-11],[75,-36],[-4,-22]],[[3329,3210],[-4,-51],[-47,0],[36,-60],[-70,48],[-28,-36],[-33,-7],[-18,27],[-26,-66],[-107,-36],[-128,22],[-33,-45],[-54,16]],[[2817,3022],[-42,43],[-31,124],[-59,-20],[-26,17],[-92,-31],[-27,-40],[9,-32],[-58,-45],[1,-43],[-67,-24],[-42,-56],[-24,4],[1,-34],[-95,76],[14,-18],[-41,-58],[-41,47],[-46,-40],[-26,29],[-14,-66],[-61,-29],[-58,38],[-13,52],[-27,-34],[-33,27],[-31,-10],[-19,29],[-44,-7],[-14,32],[-74,-33],[-8,18]],[[5810,6456],[16,37],[-81,56],[-14,149],[-53,24],[-217,-17],[-35,190],[-35,8],[-34,-41],[-50,9]],[[5326,7152],[84,3],[63,56],[69,-2],[48,48],[60,-10],[35,-40],[34,37],[58,-22]],[[6461,6951],[-6,-70],[30,-114],[80,-111],[39,-141],[-86,-5],[-39,-79],[-121,-35],[-70,-77]],[[3329,3210],[67,-59],[49,4],[96,-86],[61,16],[68,-16],[60,56],[68,0],[25,-39],[29,35],[5,-16],[14,24],[29,-12],[4,-27],[-37,-8],[12,-34],[-52,-28],[6,-37],[-38,-37],[10,-36],[-65,-59],[-17,-59],[18,-36],[-29,-62]],[[3712,2694],[-38,-7],[-96,173],[-117,3],[-32,-23],[-52,23],[-41,-26],[-79,31],[-49,-16],[-39,24],[-74,-28],[-42,27],[-30,-8],[-39,63],[-122,29],[-45,63]],[[11026,6842],[53,-185],[-34,-92],[26,-56],[-20,-79],[26,-59],[-90,-240],[-121,-99],[-245,-50],[-74,-43]],[[10547,5939],[-29,56],[-139,101],[-76,27],[-94,82],[-195,227]],[[8927,3125],[-148,-164],[-320,-156],[-160,-101],[-92,-101],[-139,-51]],[[6248,3395],[-11,24],[40,27],[44,-25],[15,25],[-15,12],[81,16],[83,-23],[15,24],[9,-44],[20,41],[69,-19],[1,44]],[[4785,1841],[-14,-23],[-50,8],[-61,-25],[-43,25],[-128,-58],[-32,7],[-26,-54],[-56,6],[-118,-68],[-31,-95]],[[4064,1323],[-11,34],[35,36],[-31,27],[2,39],[-48,21],[-36,-15],[-5,78],[-27,35],[9,55],[-43,35],[27,66],[-40,55],[-28,156],[21,96],[53,40],[7,120]],[[3949,2201],[131,-117],[13,72],[95,40],[107,7],[12,-28],[47,1]],[[4280,8776],[-102,-1019],[101,-75],[74,2],[35,43],[38,-32],[82,11],[44,-55],[34,-5],[48,-72],[51,-21],[35,32],[20,-14]],[[4740,7571],[-35,-28],[19,-28],[-142,-74],[-58,-168]],[[4767,6261],[-97,10],[-84,-48],[0,-19],[-25,3],[-44,-61]],[[3990,5692],[-25,-15],[-10,36],[-108,35],[-150,-30],[-87,53],[-416,66]],[[5186,836],[-168,-33],[-154,112],[-103,40],[-104,145]],[[7482,2086],[-332,-195],[-45,-67],[-56,-37],[-41,-83]],[[5345,531],[-262,-157],[-32,17],[-37,-31],[-60,-7],[-58,-72],[2,30],[-71,56],[-48,-4],[-86,117]],[[4832,6257],[122,-14],[78,-66]],[[5181,5323],[-11,-60],[-70,-9],[-16,31],[-88,-30],[-200,65],[-28,43],[1,72],[-49,71],[-141,66]],[[6128,9560],[154,-21],[3,32],[27,-7],[2,46],[25,-4],[-21,30],[19,0],[-13,51],[62,63],[-3,24],[101,28],[33,39]],[[6517,9841],[82,11],[59,-19],[133,-128],[62,9],[65,-29],[48,58],[69,2],[41,-59],[50,12],[1,-18],[109,-38],[28,9],[45,81],[90,-39],[126,21],[95,-19]],[[8797,7130],[-118,-47],[-59,-92],[-37,-154],[-140,-21],[-149,-108],[27,-21],[63,7],[29,-42],[14,-207],[35,-37],[-66,-81],[53,-134],[-54,-81],[20,-76],[72,-119],[82,-61],[245,-318],[83,-223],[43,-23],[36,-66],[-6,-133]],[[8270,5642],[-79,139],[-50,13],[-66,65],[-17,49],[-176,119],[-47,97],[5,77],[-35,57],[-51,29],[-45,126],[-114,82],[-93,172],[-74,28],[-43,109],[-54,48]],[[9347,6299],[54,-104],[-16,-93],[21,-23],[-15,-21],[25,-13],[13,-117],[95,-110],[-12,-47],[133,-102],[41,65],[42,2],[63,62],[68,-9],[58,22],[80,-88],[61,-27],[71,-115],[48,-27],[3,-41],[21,6]],[[10201,5519],[-41,-41],[-62,-166],[18,-47],[-11,-135],[25,-46],[-15,-87],[-56,-38],[-98,-15],[-70,-94],[-33,-105],[-53,-40],[-80,-15],[-6,-98]],[[7992,3896],[-39,199],[-29,16],[-31,106],[14,38],[-97,168],[-40,260],[-53,47],[-109,182],[-54,30],[-21,41],[52,104],[131,104],[4,205],[70,8]],[[9375,3997],[51,-46],[30,-103],[-82,-132],[-90,-41]],[[4685,10266],[60,36],[53,-24],[82,21],[29,-14],[75,47],[128,-24],[158,93],[18,73],[43,3],[30,34],[23,-16],[46,27],[58,0],[55,36],[43,-34],[27,18],[85,-16],[23,-66],[70,-12],[59,-56],[14,-59],[-19,-43],[79,-42],[94,12],[148,82],[145,-26],[51,90],[-10,79],[32,43],[132,43],[114,135],[73,32],[17,97],[53,11],[41,71],[84,24],[39,-41],[-37,-652],[-83,-18]],[[6817,10230],[-48,35],[-46,-22],[-19,45],[-63,-39],[-38,17],[-22,-34],[34,-3],[-3,-24],[23,-6],[-24,-16],[-22,41],[-36,-28],[14,35],[-41,-1],[24,2],[1,31],[-29,-3],[-15,32],[-23,-27],[-29,22],[-18,-35],[22,-22],[-52,4],[11,40],[-55,11],[-9,-48],[-11,31],[-30,-8],[16,-24],[-44,6],[21,-45],[-51,13],[14,-44],[-15,-16],[-48,32],[20,-64],[-27,-24],[29,-15],[-97,7],[-25,-25],[7,-25],[-28,14],[-11,-42],[-14,14],[-10,-35],[-39,-24],[28,36],[-54,9],[2,50],[-31,24],[-42,-3],[-36,-37],[-2,43],[-25,-14],[-12,21],[-17,-42],[-34,-14],[20,30],[-38,13],[7,31],[-21,0],[-15,48],[-7,-41],[-25,10],[-19,-24],[-27,26],[-35,-42],[-15,88],[-145,14],[-172,-42],[-23,-12],[14,-79],[67,-109],[24,-104]],[[5358,4340],[-106,-37],[-32,59],[-51,5],[-20,-23],[-86,24],[-187,-235],[-22,-162]],[[5385,381],[-33,-55],[-62,-6],[-21,19],[-85,-54],[-34,10],[-21,-39],[-55,18],[-64,-44],[2,-57],[-24,-13],[-89,18],[-99,-58],[-69,51],[-48,-40],[-93,0],[-47,-44],[-51,36]],[[5214,7379],[130,243],[-59,60],[11,59],[-98,44]],[[5198,7785],[26,47],[48,19],[55,99],[2,57],[46,62],[92,55],[123,57],[100,-42],[144,-1],[-4,47],[-39,4],[-41,48],[10,28],[-64,44],[0,23],[-58,20],[-12,100],[-64,36],[-6,79]],[[10547,5939],[-101,-166],[-85,-67],[-56,-107],[-104,-80]],[[4740,7571],[76,-20],[98,183],[121,-1],[61,75],[102,-23]],[[3949,2201],[-18,103],[-173,160],[-25,85],[28,26],[-3,76],[-15,43],[-31,0]],[[6817,10230],[-76,1],[-76,-49],[-152,-265],[4,-76]]],"transform":{"scale":[0.0006471036802143812,0.0006252024456521831],"translate":[-58.1687203,-24.0685836]},"objects":{"municipios_ms2":{"type":"GeometryCollection","geometries":[{"arcs":[[0,1,2,3,4,5]],"type":"Polygon","properties":{"NM_MUN":"Porto Murtinho","name":"porto murtinho","Regional":"5ª Regional de Jardim","cor":"#9467bd"}},{"arcs":[[6,7,8,9,10,11]],"type":"Polygon","properties":{"NM_MUN":"Nova Alvorada do Sul","name":"nova alvorada do sul","Regional":"13ª Regional de Maracaju","cor":"#aec7e8"}},{"arcs":[[12,13,14,15]],"type":"Polygon","properties":{"NM_MUN":"Paranaíba","name":"paranaíba","Regional":"7ª Regional de Paranaíba","cor":"#e377c2"}},{"arcs":[[16,17,18,19]],"type":"Polygon","properties":{"NM_MUN":"Paranhos","name":"paranhos","Regional":"8ª Regional de Ponta Porã","cor":"#7f7f7f"}},{"arcs":[[-12,20,21,22,23,24,25,26,27]],"type":"Polygon","properties":{"NM_MUN":"Nova Andradina","name":"nova andradina","Regional":"6ª Regional de Nova Andradina","cor":"#8c564b"}},{"arcs":[[28,29,30,31,32]],"type":"Polygon","properties":{"NM_MUN":"Paraíso das Águas","name":"paraíso das águas","Regional":"12ª Regional de Chapadão do Sul","cor":"#98df8a"}},{"arcs":[[-26,33,34,35]],"type":"Polygon","properties":{"NM_MUN":"Novo Horizonte do Sul","name":"novo horizonte do sul","Regional":"6ª Regional de Nova Andradina","cor":"#8c564b"}},{"arcs":[[36,37,38,39,40,41]],"type":"Polygon","properties":{"NM_MUN":"Miranda","name":"miranda","Regional":"11ª Regional de Aquidauana","cor":"#ff9896"}},{"arcs":[[42,43,44,45,46,47,48,49,50,51]],"type":"Polygon","properties":{"NM_MUN":"Maracaju","name":"maracaju","Regional":"13ª Regional de Maracaju","cor":"#aec7e8"}},{"arcs":[[-48,52,53,54]],"type":"Polygon","properties":{"NM_MUN":"Nioaque","name":"nioaque","Regional":"5ª Regional de Jardim","cor":"#9467bd"}},{"arcs":[[55,56,57]],"type":"Polygon","properties":{"NM_MUN":"Mundo Novo","name":"mundo novo","Regional":"9ª Regional de Naviraí","cor":"#bcbd22"}},{"arcs":[[58,59,60,61,62,63]],"type":"Polygon","properties":{"NM_MUN":"Naviraí","name":"naviraí","Regional":"9ª Regional de Naviraí","cor":"#bcbd22"}},{"arcs":[[-4,64,65,66,67,68]],"type":"Polygon","properties":{"NM_MUN":"Jardim","name":"jardim","Regional":"5ª Regional de Jardim","cor":"#9467bd"}},{"arcs":[[-35,69,-62,70,71,72]],"type":"Polygon","properties":{"NM_MUN":"Jateí","name":"jateí","Regional":"4ª Regional de Dourados","cor":"#d62728"}},{"arcs":[[73,74,75,76]],"type":"Polygon","properties":{"NM_MUN":"Jaraguari","name":"jaraguari","Regional":"3ª Regional de Coxim","cor":"#ff7f0e"}},{"arcs":[[-61,77,78,79,80,-71]],"type":"Polygon","properties":{"NM_MUN":"Juti","name":"juti","Regional":"4ª Regional de Dourados","cor":"#d62728"}},{"arcs":[[81,82,83,84,85]],"type":"Polygon","properties":{"NM_MUN":"Laguna Carapã","name":"laguna carapã","Regional":"4ª Regional de Dourados","cor":"#d62728"}},{"arcs":[[86]],"type":"Polygon","properties":{"NM_MUN":"Ladário","name":"ladário","Regional":"2ª Regional de Corumbá","cor":"#2ca02c"}},{"arcs":[[-44,87,88,89]],"type":"Polygon","properties":{"NM_MUN":"Itaporã","name":"itaporã","Regional":"4ª Regional de Dourados","cor":"#d62728"}},{"arcs":[[90,-59,91,92]],"type":"Polygon","properties":{"NM_MUN":"Itaquiraí","name":"itaquiraí","Regional":"9ª Regional de Naviraí","cor":"#bcbd22"}},{"arcs":[[-16,93,94,95,96,97,98]],"type":"Polygon","properties":{"NM_MUN":"Inocência","name":"inocência","Regional":"7ª Regional de Paranaíba","cor":"#e377c2"}},{"arcs":[[-56,99,100,101,102,103]],"type":"Polygon","properties":{"NM_MUN":"Japorã","name":"japorã","Regional":"9ª Regional de Naviraí","cor":"#bcbd22"}},{"arcs":[[-27,-36,104,105,106]],"type":"Polygon","properties":{"NM_MUN":"Ivinhema","name":"ivinhema","Regional":"6ª Regional de Nova Andradina","cor":"#8c564b"}},{"arcs":[[-73,107,108,109,-105]],"type":"Polygon","properties":{"NM_MUN":"Glória de Dourados","name":"glória de dourados","Regional":"4ª Regional de Dourados","cor":"#d62728"}},{"arcs":[[110,111,112,113,114,115]],"type":"Polygon","properties":{"NM_MUN":"Figueirão","name":"figueirão","Regional":"3ª Regional de Coxim","cor":"#ff7f0e"}},{"arcs":[[-60,-91,116,-103,117,118,-78]],"type":"Polygon","properties":{"NM_MUN":"Iguatemi","name":"iguatemi","Regional":"9ª Regional de Naviraí","cor":"#bcbd22"}},{"arcs":[[-47,119,-66,120,-53]],"type":"Polygon","properties":{"NM_MUN":"Guia Lopes da Laguna","name":"guia lopes da laguna","Regional":"5ª Regional de Jardim","cor":"#9467bd"}},{"arcs":[[-89,121,122]],"type":"Polygon","properties":{"NM_MUN":"Douradina","name":"douradina","Regional":"4ª Regional de Dourados","cor":"#d62728"}},{"arcs":[[-50,123,124,125,126]],"type":"Polygon","properties":{"NM_MUN":"Dois Irmãos do Buriti","name":"dois irmãos do buriti","Regional":"11ª Regional de Aquidauana","cor":"#ff9896"}},{"arcs":[[-106,-110,127,128,129,130]],"type":"Polygon","properties":{"NM_MUN":"Deodápolis","name":"deodápolis","Regional":"4ª Regional de Dourados","cor":"#d62728"}},{"arcs":[[-104,-117,-93,131,-57]],"type":"Polygon","properties":{"NM_MUN":"Eldorado","name":"eldorado","Regional":"9ª Regional de Naviraí","cor":"#bcbd22"}},{"arcs":[[-109,132,133,134,-128]],"type":"Polygon","properties":{"NM_MUN":"Fátima do Sul","name":"fátima do sul","Regional":"4ª Regional de Dourados","cor":"#d62728"}},{"arcs":[[-45,-90,-123,135,-129,-135,136,-83,137]],"type":"Polygon","properties":{"NM_MUN":"Dourados","name":"dourados","Regional":"4ª Regional de Dourados","cor":"#d62728"}},{"arcs":[[-29,-33,138,139,140,-98,141]],"type":"Polygon","properties":{"NM_MUN":"Chapadão do Sul","name":"chapadão do sul","Regional":"12ª Regional de Chapadão do Sul","cor":"#98df8a"}},{"arcs":[[-13,-99,-141,142]],"type":"Polygon","properties":{"NM_MUN":"Cassilândia","name":"cassilândia","Regional":"12ª Regional de Chapadão do Sul","cor":"#98df8a"}},{"arcs":[[-32,143,-115,144,145,-139]],"type":"Polygon","properties":{"NM_MUN":"Costa Rica","name":"costa rica","Regional":"12ª Regional de Chapadão do Sul","cor":"#98df8a"}},{"arcs":[[-1,146,147,148,149,-39,150],[-87]],"type":"Polygon","properties":{"NM_MUN":"Corumbá","name":"corumbá","Regional":"2ª Regional de Corumbá","cor":"#2ca02c"}},{"arcs":[[-113,151,152,-148,153,154,155,156]],"type":"Polygon","properties":{"NM_MUN":"Coxim","name":"coxim","Regional":"3ª Regional de Coxim","cor":"#ff7f0e"}},{"arcs":[[157,158,159,160,161,162,163]],"type":"Polygon","properties":{"NM_MUN":"Corguinho","name":"corguinho","Regional":"3ª Regional de Coxim","cor":"#ff7f0e"}},{"arcs":[[-18,164,165,166,167]],"type":"Polygon","properties":{"NM_MUN":"Coronel Sapucaia","name":"coronel sapucaia","Regional":"8ª Regional de Ponta Porã","cor":"#7f7f7f"}},{"arcs":[[-80,168,-84,-137,-134,169]],"type":"Polygon","properties":{"NM_MUN":"Caarapó","name":"caarapó","Regional":"4ª Regional de Dourados","cor":"#d62728"}},{"arcs":[[-10,170,171,172,-77,173]],"type":"Polygon","properties":{"NM_MUN":"Campo Grande","name":"campo grande","Regional":"1ª Regional de Campo Grande","cor":"#1f77b4"}},{"arcs":[[-5,-69,174,175]],"type":"Polygon","properties":{"NM_MUN":"Caracol","name":"caracol","Regional":"5ª Regional de Jardim","cor":"#9467bd"}},{"arcs":[[-31,176,177,178,179,-111,-116,-144]],"type":"Polygon","properties":{"NM_MUN":"Camapuã","name":"camapuã","Regional":"3ª Regional de Coxim","cor":"#ff7f0e"}},{"arcs":[[-24,180,181,182]],"type":"Polygon","properties":{"NM_MUN":"Batayporã","name":"batayporã","Regional":"6ª Regional de Nova Andradina","cor":"#8c564b"}},{"arcs":[[-22,183,184,185,186]],"type":"Polygon","properties":{"NM_MUN":"Bataguassu","name":"bataguassu","Regional":"10ª Regional de Três Lagoas","cor":"#17becf"}},{"arcs":[[-3,187,-37,-42,188,-54,-121,-65]],"type":"Polygon","properties":{"NM_MUN":"Bonito","name":"bonito","Regional":"5ª Regional de Jardim","cor":"#9467bd"}},{"arcs":[[189,190,191,192,193,194]],"type":"Polygon","properties":{"NM_MUN":"Brasilândia","name":"brasilândia","Regional":"10ª Regional de Três Lagoas","cor":"#17becf"}},{"arcs":[[-68,195,196,197,-175]],"type":"Polygon","properties":{"NM_MUN":"Bela Vista","name":"bela vista","Regional":"5ª Regional de Jardim","cor":"#9467bd"}},{"arcs":[[-2,-151,-38,-188]],"type":"Polygon","properties":{"NM_MUN":"Bodoquena","name":"bodoquena","Regional":"11ª Regional de Aquidauana","cor":"#ff9896"}},{"arcs":[[-75,198,-163,199,-179,200]],"type":"Polygon","properties":{"NM_MUN":"Bandeirantes","name":"bandeirantes","Regional":"3ª Regional de Coxim","cor":"#ff7f0e"}},{"arcs":[[-197,201,202]],"type":"Polygon","properties":{"NM_MUN":"Antônio João","name":"antônio joão","Regional":"8ª Regional de Ponta Porã","cor":"#7f7f7f"}},{"arcs":[[-15,203,204,-94]],"type":"Polygon","properties":{"NM_MUN":"Aparecida do Taboado","name":"aparecida do taboado","Regional":"7ª Regional de Paranaíba","cor":"#e377c2"}},{"arcs":[[-23,-187,205,-181]],"type":"Polygon","properties":{"NM_MUN":"Anaurilândia","name":"anaurilândia","Regional":"6ª Regional de Nova Andradina","cor":"#8c564b"}},{"arcs":[[-7,-28,-107,-131,206]],"type":"Polygon","properties":{"NM_MUN":"Angélica","name":"angélica","Regional":"6ª Regional de Nova Andradina","cor":"#8c564b"}},{"arcs":[[-86,207,-166,208,209]],"type":"Polygon","properties":{"NM_MUN":"Aral Moreira","name":"aral moreira","Regional":"8ª Regional de Ponta Porã","cor":"#7f7f7f"}},{"arcs":[[-150,210,211,-160,212,-125,213,-40]],"type":"Polygon","properties":{"NM_MUN":"Aquidauana","name":"aquidauana","Regional":"11ª Regional de Aquidauana","cor":"#ff9896"}},{"arcs":[[-41,-214,-124,-49,-55,-189]],"type":"Polygon","properties":{"NM_MUN":"Anastácio","name":"anastácio","Regional":"11ª Regional de Aquidauana","cor":"#ff9896"}},{"arcs":[[-79,-119,214,-167,-208,-85,-169]],"type":"Polygon","properties":{"NM_MUN":"Amambai","name":"amambai","Regional":"8ª Regional de Ponta Porã","cor":"#7f7f7f"}},{"arcs":[[-25,-183,215,-63,-70,-34]],"type":"Polygon","properties":{"NM_MUN":"Taquarussu","name":"taquarussu","Regional":"6ª Regional de Nova Andradina","cor":"#8c564b"}},{"arcs":[[-19,-168,-215,-118,-102,216]],"type":"Polygon","properties":{"NM_MUN":"Tacuru","name":"tacuru","Regional":"9ª Regional de Naviraí","cor":"#bcbd22"}},{"arcs":[[-126,-213,-159,217,-172,218]],"type":"Polygon","properties":{"NM_MUN":"Terenos","name":"terenos","Regional":"11ª Regional de Aquidauana","cor":"#ff9896"}},{"arcs":[[-114,-157,219,220,-145]],"type":"Polygon","properties":{"NM_MUN":"Alcinópolis","name":"alcinópolis","Regional":"3ª Regional de Coxim","cor":"#ff7f0e"}},{"arcs":[[-72,-81,-170,-133,-108]],"type":"Polygon","properties":{"NM_MUN":"Vicentina","name":"vicentina","Regional":"4ª Regional de Dourados","cor":"#d62728"}},{"arcs":[[-30,-142,-97,221,-192,222,-177]],"type":"Polygon","properties":{"NM_MUN":"Água Clara","name":"água clara","Regional":"10ª Regional de Três Lagoas","cor":"#17becf"}},{"arcs":[[-96,223,224,-193,-222]],"type":"Polygon","properties":{"NM_MUN":"Três Lagoas","name":"três lagoas","Regional":"10ª Regional de Três Lagoas","cor":"#17becf"}},{"arcs":[[-185,225,-190,-195,226]],"type":"Polygon","properties":{"NM_MUN":"Santa Rita do Pardo","name":"santa rita do pardo","Regional":"10ª Regional de Três Lagoas","cor":"#17becf"}},{"arcs":[[-74,-173,-218,-158,-164,-199]],"type":"Polygon","properties":{"NM_MUN":"Rochedo","name":"rochedo","Regional":"3ª Regional de Coxim","cor":"#ff7f0e"}},{"arcs":[[-155,227,228]],"type":"Polygon","properties":{"NM_MUN":"Sonora","name":"sonora","Regional":"3ª Regional de Coxim","cor":"#ff7f0e"}},{"arcs":[[-9,229,-51,-127,-219,-171]],"type":"Polygon","properties":{"NM_MUN":"Sidrolândia","name":"sidrolândia","Regional":"11ª Regional de Aquidauana","cor":"#ff9896"}},{"arcs":[[-20,-217,-101,230]],"type":"Polygon","properties":{"NM_MUN":"Sete Quedas","name":"sete quedas","Regional":"8ª Regional de Ponta Porã","cor":"#7f7f7f"}},{"arcs":[[-112,-180,-200,-162,231,232,-152]],"type":"Polygon","properties":{"NM_MUN":"São Gabriel do Oeste","name":"são gabriel do oeste","Regional":"3ª Regional de Coxim","cor":"#ff7f0e"}},{"arcs":[[-95,-205,233,-224]],"type":"Polygon","properties":{"NM_MUN":"Selvíria","name":"selvíria","Regional":"10ª Regional de Três Lagoas","cor":"#17becf"}},{"arcs":[[-11,-174,-76,-201,-178,-223,-191,-226,-184,-21]],"type":"Polygon","properties":{"NM_MUN":"Ribas do Rio Pardo","name":"ribas do rio pardo","Regional":"10ª Regional de Três Lagoas","cor":"#17becf"}},{"arcs":[[-161,-212,234,-232]],"type":"Polygon","properties":{"NM_MUN":"Rio Negro","name":"rio negro","Regional":"3ª Regional de Coxim","cor":"#ff7f0e"}},{"arcs":[[-149,-153,-233,-235,-211]],"type":"Polygon","properties":{"NM_MUN":"Rio Verde de Mato Grosso","name":"rio verde de mato grosso","Regional":"3ª Regional de Coxim","cor":"#ff7f0e"}},{"arcs":[[-8,-207,-130,-136,-122,-88,-43,-52,-230]],"type":"Polygon","properties":{"NM_MUN":"Rio Brilhante","name":"rio brilhante","Regional":"13ª Regional de Maracaju","cor":"#aec7e8"}},{"arcs":[[-46,-138,-82,-210,235,-202,-196,-67,-120]],"type":"Polygon","properties":{"NM_MUN":"Ponta Porã","name":"ponta porã","Regional":"8ª Regional de Ponta Porã","cor":"#7f7f7f"}},{"arcs":[[-156,-229,236,-220]],"type":"Polygon","properties":{"NM_MUN":"Pedro Gomes","name":"pedro gomes","Regional":"3ª Regional de Coxim","cor":"#ff7f0e"}}]}}}